NORAD_CAT_ID,OBJECT_NAME,OBJECT_TYPE,EPOCH,MEAN_MOTION,ECCENTRICITY,INCLINATION,RA_OF_ASC_NODE,ARG_OF_PERICENTER,MEAN_ANOMALY,BSTAR,MEAN_MOTION_DOT,MEAN_MOTION_DDOT,TLE_LINE0,TLE_LINE1,TLE_LINE2,SEMIMAJOR_AXIS,PERIOD,APOGEE,PERIGEE,DECAYED
52382.0,STARLINK-3799,PAYLOAD,2022-10-16 15:35:53,15.08842745,0.0002898999999999,53.2216,355.8676,25.7017,334.4119,-8.423799999999999e-05,-1.629e-05,0.0,0 STARLINK-3799,1 52382U 22045BD  22289.64992897 -.00001629  00000-0 -84238-4 0  9999,2 52382  53.2216 355.8676 0002899  25.7017 334.4119 15.08842745 28729,6917.871999999999,95.437,541.742,537.732,0.0
52382.0,STARLINK-3799,PAYLOAD,2022-10-17 12:15:54,15.08841475,0.0002544,53.2223,352.0026,29.1102,331.0032,1.3414e-05,-7.5e-07,0.0,0 STARLINK-3799,1 52382U 22045BD  22290.51105096 -.00000075  00000-0  13414-4 0  9995,2 52382  53.2223 352.0026 0002544  29.1102 331.0032 15.08841475 28855,6917.876,95.437,541.501,537.981,0.0
52382.0,STARLINK-3799,PAYLOAD,2022-10-17 15:26:40,15.0884428,0.0002556,53.2222,351.4076,28.7903,331.3230000000001,3.2333000000000004e-05,2.26e-06,0.0,0 STARLINK-3799,1 52382U 22045BD  22290.64352866  .00000226  00000-0  32333-4 0  9996,2 52382  53.2222 351.4076 0002556  28.7903 331.3230 15.08844280 28871,6917.8669999999975,95.437,541.501,537.964,0.0
52382.0,STARLINK-3799,PAYLOAD,2022-10-18 04:09:46,15.08835469,0.0002583999999999,53.2226,349.0294,32.9191,327.1961,5.9649e-05,6.61e-06,0.0,0 STARLINK-3799,1 52382U 22045BD  22291.17345552  .00000661  00000-0  59649-4 0  9991,2 52382  53.2226 349.0294 0002584  32.9191 327.1961 15.08835469 28959,6917.894,95.438,541.547,537.972,0.0
52382.0,STARLINK-3799,PAYLOAD,2022-10-18 10:31:19,15.08827155,0.0002534,53.2219,347.8396,25.8474,334.2645,-9.8189e-06,-4.45e-06,0.0,0 STARLINK-3799,1 52382U 22045BD  22291.43842323 -.00000445  00000-0 -98189-5 0  9993,2 52382  53.2219 347.8396 0002534  25.8474 334.2645 15.08827155 28995,6917.92,95.438,541.538,538.0319999999998,0.0
52382.0,STARLINK-3799,PAYLOAD,2022-10-18 12:06:42,15.08829241,0.0002575,53.2222,347.5424,29.8283,330.2856,-6.8804e-05,-1.383e-05,0.0,0 STARLINK-3799,1 52382U 22045BD  22291.50466416 -.00001383  00000-0 -68804-4 0  9998,2 52382  53.2222 347.5424 0002575  29.8283 330.2856 15.08829241 29006,6917.913000000001,95.438,541.56,537.997,0.0
52382.0,STARLINK-3799,PAYLOAD,2022-10-19 04:00:33,15.08837915,0.0002544,53.222,344.5689,28.4037,331.7093,7.2889e-05,8.72e-06,0.0,0 STARLINK-3799,1 52382U 22045BD  22292.16705704  .00000872  00000-0  72889-4 0  9995,2 52382  53.2220 344.5689 0002544  28.4037 331.7093 15.08837915 29109,6917.887,95.438,541.512,537.992,0.0
52382.0,STARLINK-3799,PAYLOAD,2022-10-19 10:22:06,15.08840239,0.0002596,53.2221,343.3798,28.3482,331.7651,0.00011945,1.613e-05,0.0,0 STARLINK-3799,1 52382U 22045BD  22292.43201475  .00001613  00000-0  11945-3 0  9990,2 52382  53.2221 343.3798 0002596  28.3482 331.7651 15.08840239 29145,6917.88,95.438,541.5409999999998,537.9490000000002,0.0
52382.0,STARLINK-3799,PAYLOAD,2022-10-19 13:32:52,15.08834312,0.0002672,53.2219,342.7855,26.0831,334.0295,6.0948e-05,6.82e-06,0.0,0 STARLINK-3799,1 52382U 22045BD  22292.56450101  .00000682  00000-0  60948-4 0  9999,2 52382  53.2219 342.7855 0002672  26.0831 334.0295 15.08834312 29164,6917.898,95.438,541.611,537.914,0.0
52382.0,STARLINK-3799,PAYLOAD,2022-10-20 05:26:44,15.08833789,0.00028,53.2214,339.8126,25.7164,334.3967,0.00012507,1.702e-05,0.0,0 STARLINK-3799,1 52382U 22045BD  22293.22690172  .00001702  00000-0  12507-3 0  9998,2 52382  53.2214 339.8126 0002800  25.7164 334.3967 15.08833789 29262,6917.899,95.438,541.701,537.827,0.0
52382.0,STARLINK-3799,PAYLOAD,2022-10-20 11:48:17,15.08837072,0.0002439,53.2221,338.6218,27.7671,332.3451,-1.8277e-05,-5.79e-06,0.0,0 STARLINK-3799,1 52382U 22045BD  22293.49186461 -.00000579  00000-0 -18277-4 0  9992,2 52382  53.2221 338.6218 0002439  27.7671 332.3451 15.08837072 29302,6917.889,95.438,541.442,538.067,0.0
52382.0,STARLINK-3799,PAYLOAD,2022-10-20 19:45:12,15.08854322,0.0002162,53.2225,337.1359,39.0682,321.0466,-0.00020225,-3.507e-05,0.0,0 STARLINK-3799,1 52382U 22045BD  22293.82305759 -.00003507  00000-0 -20225-3 0  9991,2 52382  53.2225 337.1359 0002162  39.0682 321.0466 15.08854322 29350,6917.837,95.437,541.197,538.206,0.0
52382.0,STARLINK-3799,PAYLOAD,2022-10-21 02:06:45,15.08842062,0.0002577,53.2219,335.9457,27.1588,332.9539,3.0985e-05,2.05e-06,0.0,0 STARLINK-3799,1 52382U 22045BD  22294.08802323  .00000205  00000-0  30985-4 0  9994,2 52382  53.2219 335.9457 0002577  27.1588 332.9539 15.08842062 29395,6917.874,95.437,541.5219999999998,537.956,0.0
52382.0,STARLINK-3799,PAYLOAD,2022-10-21 10:03:41,15.08836978,0.0002674,53.2217,334.4589,27.2482,332.865,-1.6026e-05,-5.44e-06,0.0,0 STARLINK-3799,1 52382U 22045BD  22294.41922840 -.00000544  00000-0 -16026-4 0  9996,2 52382  53.2217 334.4589 0002674  27.2482 332.8650 15.08836978 29443,6917.89,95.438,541.604,537.905,0.0
52382.0,STARLINK-3799,PAYLOAD,2022-10-21 11:39:04,15.08836367,0.0002694,53.2218,334.1618,27.1661,332.9472,-2.0973e-05,-6.22e-06,0.0,0 STARLINK-3799,1 52382U 22045BD  22294.48546929 -.00000622  00000-0 -20973-4 0  9996,2 52382  53.2218 334.1618 0002694  27.1661 332.9472 15.08836367 29450,6917.891,95.438,541.62,537.893,0.0
52382.0,STARLINK-3799,PAYLOAD,2022-10-21 19:36:00,15.08835704,0.0002839,53.222,332.675,26.9454,333.1685,9.2329e-05,1.181e-05,0.0,0 STARLINK-3799,1 52382U 22045BD  22294.81666791  .00001181  00000-0  92329-4 0  9996,2 52382  53.2220 332.6750 0002839  26.9454 333.1685 15.08835704 29500,6917.894,95.438,541.7230000000002,537.795,0.0
52382.0,STARLINK-3799,PAYLOAD,2022-10-22 11:29:51,15.08834874,0.0002671,53.2216,329.7011,27.2202,332.89300000000014,8.742299999999999e-05,1.103e-05,0.0,0 STARLINK-3799,1 52382U 22045BD  22295.47906890  .00001103  00000-0  87423-4 0  9999,2 52382  53.2216 329.7011 0002671  27.2202 332.8930 15.08834874 29608,6917.896,95.438,541.609,537.913,0.0
52382.0,STARLINK-3799,PAYLOAD,2022-10-22 19:26:47,15.08840944,0.0002853999999999,53.2219,328.215,27.2303,332.8838,9.3203e-05,1.195e-05,0.0,0 STARLINK-3799,1 52382U 22045BD  22295.81026622  .00001195  00000-0  93203-4 0  9997,2 52382  53.2219 328.2150 0002854  27.2303 332.8838 15.08840944 29651,6917.878000000002,95.437,541.717,537.768,0.0
52382.0,STARLINK-3799,PAYLOAD,2022-10-23 04:59:05,15.08847157,0.0002685,53.2217,326.4299,22.1652,337.9456,0.00018711,2.691e-05,0.0,0 STARLINK-3799,1 52382U 22045BD  22296.20769833  .00002691  00000-0  18711-3 0  9991,2 52382  53.2217 326.4299 0002685  22.1652 337.9456 15.08847157 29718,6917.859,95.437,541.581,537.866,0.0
52382.0,STARLINK-3799,PAYLOAD,2022-10-23 11:20:38,15.08842655,0.0002643,53.222,325.2413,27.3275,332.7855,0.00016514,2.341e-05,0.0,0 STARLINK-3799,1 52382U 22045BD  22296.47266243  .00002341  00000-0  16514-3 0  9998,2 52382  53.2220 325.2413 0002643  27.3275 332.7855 15.08842655 29757,6917.871999999999,95.437,541.566,537.909,0.0
52382.0,STARLINK-3799,PAYLOAD,2022-10-23 19:17:33,15.08848138,0.0002856,53.2221,323.7558,27.3941,332.7201,0.0001475,2.060000000000001e-05,0.0,0 STARLINK-3799,1 52382U 22045BD  22296.80385898  .00002060  00000-0  14750-3 0  9991,2 52382  53.2221 323.7558 0002856  27.3941 332.7201 15.08848138 29800,6917.856,95.437,541.696,537.745,0.0
52382.0,STARLINK-3799,PAYLOAD,2022-10-24 01:39:06,15.08848162,0.0002924,53.2224,322.5671,28.7314,331.3839,6.7812e-05,7.91e-06,0.0,0 STARLINK-3799,1 52382U 22045BD  22297.06881985  .00000791  00000-0  67812-4 0  9995,2 52382  53.2224 322.5671 0002924  28.7314 331.3839 15.08848162 29844,6917.855,95.437,541.743,537.698,0.0
52382.0,STARLINK-3799,PAYLOAD,2022-10-24 08:00:38,15.08843552,0.0002851,53.2223,321.3769,28.0612,332.0533,2.9909e-05,1.88e-06,0.0,0 STARLINK-3799,1 52382U 22045BD  22297.33378257  .00000188  00000-0  29909-4 0  9993,2 52382  53.2223 321.3769 0002851  28.0612 332.0533 15.08843552 29882,6917.87,95.437,541.707,537.762,0.0
52382.0,STARLINK-3799,PAYLOAD,2022-10-24 19:08:21,15.08832789,0.0002988,53.2224,319.2947,25.4859,334.6280000000001,6.7497e-06,-1.81e-06,0.0,0 STARLINK-3799,1 52382U 22045BD  22297.79747138 -.00000181  00000-0  67497-5 0  9990,2 52382  53.2224 319.2947 0002988  25.4859 334.6280 15.08832789 29957,6917.901999999999,95.438,541.8340000000002,537.7,0.0
52382.0,STARLINK-3799,PAYLOAD,2022-10-25 07:51:26,15.08841088,0.0002863,53.2209,316.916,27.0792,333.0349,-2.3654e-05,-6.65e-06,0.0,0 STARLINK-3799,1 52382U 22045BD  22298.32738682 -.00000665  00000-0 -23654-4 0  9998,2 52382  53.2209 316.9160 0002863  27.0792 333.0349 15.08841088 30039,6917.877,95.437,541.7230000000002,537.761,0.0
52382.0,STARLINK-3799,PAYLOAD,2022-10-25 11:02:12,15.0884119,0.0003015,53.2213,316.3222,24.9115,335.2022,-1.1323e-06,-3.07e-06,0.0,0 STARLINK-3799,1 52382U 22045BD  22298.45986691 -.00000307  00000-0 -11323-5 0  9991,2 52382  53.2213 316.3222 0003015  24.9115 335.2022 15.08841190 30050,6917.877,95.437,541.827,537.656,0.0
52382.0,STARLINK-3799,PAYLOAD,2022-10-26 10:53:00,15.08834053,0.0002921,53.2213,311.862,27.9531,332.1618,5.7123e-05,6.21e-06,0.0,0 STARLINK-3799,1 52382U 22045BD  22299.45347230  .00000621  00000-0  57123-4 0  9996,2 52382  53.2213 311.8620 0002921  27.9531 332.1618 15.08834053 30206,6917.899,95.438,541.784,537.743,0.0
52382.0,STARLINK-3799,PAYLOAD,2022-10-27 04:22:13,15.08844382,0.0002965,53.2213,308.5913,27.5424,332.5725,0.00020544,2.983e-05,0.0,0 STARLINK-3799,1 52382U 22045BD  22300.18210616  .00002983  00000-0  20544-3 0  9995,2 52382  53.2213 308.5913 0002965  27.5424 332.5725 15.08844382 30310,6917.8669999999975,95.437,541.783,537.681,0.0
52382.0,STARLINK-3799,PAYLOAD,2022-10-27 10:43:47,15.08838348,0.0002985,53.2207,307.4004,24.8451,335.2684,8.4837e-05,1.062e-05,0.0,0 STARLINK-3799,1 52382U 22045BD  22300.44707296  .00001062  00000-0  84837-4 0  9992,2 52382  53.2207 307.4004 0002985  24.8451 335.2684 15.08838348 30357,6917.885,95.438,541.815,537.685,0.0
